ONEWEB-0098             
1 45442U 20020U   24278.67083308 -.00000265  00000+0 -78411-3 0  9999
2 45442  87.8941 144.6636 0001890  75.6606 284.4732 13.11418795221315
ONEWEB-0055             
1 45443U 20020V   24278.65642377 -.00000455  00000+0 -13189-2 0  9996
2 45443  87.8938 144.6687 0001698  78.9002 281.2316 13.11415877221287
ONEWEB-0093             
1 45444U 20020W   24278.70813965  .00000458  00000+0  12576-2 0  9996
2 45444  87.8939 144.6410 0001654  85.7106 274.4211 13.11416656221358
ONEWEB-0029             
1 45445U 20020X   24278.65047695 -.00000245  00000+0 -72661-3 0  9998
2 45445  87.8938 144.6660 0001483  84.2919 275.8378 13.11413975221328
ONEWEB-0068             
1 45446U 20020Y   24278.70221223  .00000634  00000+0  17538-2 0  9997
2 45446  87.8939 144.6414 0001533  82.3834 277.7468 13.11415890221271
ONEWEB-0046             
1 45447U 20020Z   24278.69967384  .00000627  00000+0  17335-2 0  9998
2 45447  87.8938 144.6539 0001294  74.7531 285.3740 13.11417007221283
ONEWEB-0063             
1 45448U 20020AA  24278.65219749 -.00000331  00000+0 -96869-3 0  9994
2 45448  87.8937 144.6633 0001419  69.5766 290.5514 13.11416552221369
ONEWEB-0019             
1 45449U 20020AB  24278.70305956  .00000622  00000+0  17203-2 0  9992
2 45449  87.8942 144.6607 0001706  73.4175 286.7140 13.11417155221210
